[{"OBJECT_NAME":"STARLINK-34895","OBJECT_ID":"2025-189AC","EPOCH":"2026-03-09T16:04:11.121888","MEAN_MOTION":15.30236819,"ECCENTRICITY":0.00012674,"INCLINATION":53.1576,"RA_OF_ASC_NODE":206.838,"ARG_OF_PERICENTER":53.2836,"MEAN_ANOMALY":306.8281,"EPHEMERIS_TYPE":0,"CLASSIFICATION_TYPE":"U","NORAD_CAT_ID":65349,"ELEMENT_SET_NO":999,"REV_AT_EPOCH":3106,"BSTAR":0.00099741639,"MEAN_MOTION_DOT":0.00029332,"MEAN_MOTION_DDOT":0},{"OBJECT_NAME":"SPACEMOBILE-005 DEB","OBJECT_ID":"2024-163K","EPOCH":"2026-03-09T07:33:15.902496","MEAN_MOTION":15.31481997,"ECCENTRICITY":0.00072885,"INCLINATION":52.9762,"RA_OF_ASC_NODE":31.7924,"ARG_OF_PERICENTER":175.8731,"MEAN_ANOMALY":184.2329,"EPHEMERIS_TYPE":0,"CLASSIFICATION_TYPE":"U","NORAD_CAT_ID":62373,"ELEMENT_SET_NO":999,"REV_AT_EPOCH":8280,"BSTAR":0.00063853778,"MEAN_MOTION_DOT":0.00019381,"MEAN_MOTION_DDOT":0}]
